QIANFAN-33              
1 61566U 24185Q   26024.89346112  .00000382  00000+0  26649-3 0  9994
2 61566  88.9759  73.9983 0007306 174.0456 186.0809 13.96589931 75181
QIANFAN-34              
1 61567U 24185R   26024.89595107  .00000579  00000+0  36854-3 0  9992
2 61567  88.9735  73.5043 0006107 170.9495 189.1797 14.02348274 75401
QIANFAN-35              
1 61568U 24185S   26024.93212895  .00001169  00000+0  46525-3 0  9990
2 61568  88.9762  71.8101 0008268 132.0005 228.1895 14.28053186 76344
QIANFAN-36              
1 61569U 24185T   26024.92186737  .00000255  00000+0  34899-3 0  9991
2 61569  88.9745  76.5485 0004034 276.8110  83.2585 13.55603140 73774
QIANFAN-37              
1 62238U 24232B   26024.94979189  .00000061  00000+0  75179-4 0  9993
2 62238  88.9995  36.9616 0001771  70.4266 289.7077 13.50983130105002
QIANFAN-38              
1 62239U 24232C   26024.97452879  .00000050  00000+0  58419-4 0  9995
2 62239  89.0002  36.8778 0016430  72.8532 287.4417 13.50981061105062
QIANFAN-39              
1 62240U 24232D   26024.94773149  .00000248  00000+0  99125-4 0  9998
2 62240  88.9999  32.3611 0014146 301.7765  58.2049 14.25415841107549
QIANFAN-40              
1 62241U 24232E   26024.93338423  .00000059  00000+0  72771-4 0  9998
2 62241  89.0030  36.4784 0015528  80.0975 280.1928 13.50981268105424
